ARCTURUS                
1 56371U 23060B   26065.64593481 -.00000066  00000+0  00000+0 0  9993
2 56371   2.5103  81.2455 0000702 345.2013  42.9382  1.00272994 10437
GS-1                    
1 56372U 23060C   26065.50403648 -.00000179  00000+0  00000+0 0  9999
2 56372   2.4607  81.0544 0004761 262.8920  85.1835  1.00299102  6508
BEIDOU-3 G4             
1 56564U 23066A   26065.82726352 -.00000115  00000+0  00000+0 0  9993
2 56564   0.6443 311.2389 0002266 156.3494 154.8091  1.00272440 10368
ARABSAT-7B (BADR-8)     
1 56757U 23075A   26063.36544733  .00000133  00000+0  00000+0 0  9994
2 56757   0.0794  28.0608 0005452 324.4726 327.1364  1.00273524 10067
NVS-01 (IRNSS-1J)       
1 56759U 23076A   26065.78864368 -.00000341  00000+0  00000+0 0  9996
2 56759   2.4130 248.5405 0007203  46.0615 283.3391  1.00273048 10089
NUSANTARA TIGA (SATRIA) 
1 57045U 23086A   26065.82440351  .00000000  00000+0  00000+0 0  9994
2 57045   0.0223 283.6480 0005914  41.7333 281.9579  1.00268169  8733
FALCON 9 R/B            
1 57046U 23086B   26065.49747003 -.00000172  00000+0  79303-2 0  9998
2 57046  26.8196 231.3786 7797280 146.6331 304.8924  1.46546708 14130
H2SAT (HEINRICH HERTZ)  
1 57213U 23093A   26065.79563003 -.00000002  00000+0  00000+0 0  9998
2 57213   0.0456 301.6759 0001469 164.0836 345.8572  1.00271611  9882
SYRACUSE 4B             
1 57214U 23093B   26065.43378139 -.00000058  00000+0  00000+0 0  9995
2 57214   0.0198 134.7089 0000336 276.7980 262.3175  1.00271375  5931
JUPITER 3 (ECHOSTAR 24) 
1 57479U 23108A   26063.81279053 -.00000160  00000+0  00000+0 0  9994
2 57479   0.0135 129.5247 0001112 209.9440  20.4954  1.00271616  9609
FALCON HEAVY R/B        
1 57480U 23108B   26065.56235160 -.00000107  00000+0  00000+0 0  9992
2 57480  11.1057 103.4068 4952500  12.1567 356.5676  1.84352707 17553
GALAXY 37 (G-37)        
1 57493U 23112A   26065.55642897  .00000044  00000+0  00000+0 0  9998
2 57493   0.0136 112.6439 0002038 238.0643 246.8634  1.00272035  9513
ATLAS 5 CENTAUR DEB     
1 57590U 18079HR  26057.22289897 -.00000079  00000+0  00000+0 0  9993
2 57590  11.7561  96.4039 4944295 185.5928 165.7012  1.56216679 24725
ATLAS 5 CENTAUR DEB     
1 57595U 18079HW  26057.27646006 -.00000131  00000+0  00000+0 0  9991
2 57595  12.5292  80.5223 4686304 224.1991  87.1117  1.69242768 26393
LUDI TANCE-4 01A        
1 57624U 23120A   26065.81331012 -.00000191  00000+0  00000+0 0  9990
2 57624  15.1734 196.5024 0005067 107.5024 242.9324  1.00268733  9512
TJS-10                  
1 58204U 23169A   26065.73734447 -.00000320  00000+0  00000+0 0  9992
2 58204   2.2800  81.7414 0010983 234.7724 230.4499  0.99764814  8511
ZHONGXING-6E            
1 58253U 23172A   26065.64211558 -.00000365  00000+0  00000+0 0  9992
2 58253   0.0529 267.5543 0002655  92.4842 150.9430  1.00267455  8639
